{"spkid": "50371161", "covariance": {"epoch": "2458644.5", "labels": ["e", "q", "tp", "node", "peri", "i"], "data": [["3.910978954129509E-13", "-9.117719377593144E-13", "2.405215690965722E-11", "-3.66300014403285E-10", "4.656682357429149E-10", "4.202835436350824E-12"], ["-9.117719377593144E-13", "2.125627571646215E-12", "-5.608217084989766E-11", "8.541476392383715E-10", "-1.085816891565927E-9", "-9.803522248749888E-12"], ["2.405215690965722E-11", "-5.608217084989766E-11", "1.633879461205167E-9", "-1.481473110862666E-8", "2.109743572293076E-8", "2.431035633767679E-10"], ["-3.66300014403285E-10", "8.541476392383715E-10", "-1.481473110862666E-8", "1.88964437337108E-6", "-1.976794701366867E-6", "-1.569385948332327E-8"], ["4.656682357429149E-10", "-1.085816891565927E-9", "2.109743572293076E-8", "-1.976794701366867E-6", "2.089406115478224E-6", "1.677685357303964E-8"], ["4.202835436350824E-12", "-9.803522248749888E-12", "2.431035633767679E-10", "-1.569385948332327E-8", "1.677685357303964E-8", "1.568500398471926E-10"]], "elements": [{"label": "e", "name": "e", "sigma": 6.25378201901018e-07, "units": null, "value": ".7815313619943783", "title": "eccentricity"}, {"units": "au", "value": ".5125516102570294", "title": "perihelion distance", "name": "q", "sigma": 1.45795321311975e-06, "label": "q"}, {"name": "tp", "sigma": 4.04212748587321e-05, "units": "TDB", "title": "time of perihelion passage", "value": "2458180.544207481782", "label": "tp"}, {"label": "node", "units": "deg", "title": "longitude of the ascending node", "value": "79.71290572475061", "sigma": 0.00137464336224749, "name": "om"}, {"label": "peri", "value": "204.8348596347954", "title": "argument of perihelion", "units": "deg", "name": "w", "sigma": 0.00144547781562991}, {"sigma": 1.2523978594967e-05, "name": "i", "units": "deg", "title": "inclination", "value": "1.915545075852103", "label": "i"}]}, "elements": [{"label": "e", "sigma": "6.0858E-7", "name": "e", "title": "eccentricity", "value": ".7811479391465292", "units": null}, {"name": "a", "sigma": "8.2235E-8", "title": "semi-major axis", "value": "2.348572448873468", "units": "au", "label": "a"}, {"label": "q", "sigma": "1.4472E-6", "name": "q", "units": "au", "title": "perihelion distance", "value": ".5139899204996412"}, {"units": "deg", "title": "inclination; angle with respect to x-y ecliptic plane", "value": "1.913542214673462", "sigma": "1.2163E-5", "name": "i", "label": "i"}, {"label": "node", "sigma": ".001357", "name": "om", "title": "longitude of the ascending node", "value": "79.83424662278337", "units": "deg"}, {"label": "peri", "title": "argument of perihelion", "value": "204.7866542260265", "units": "deg", "name": "w", "sigma": ".0014233"}, {"sigma": "1.0043E-5", "name": "ma", "title": "mean anomaly", "value": "107.9299635528859", "units": "deg", "label": "M"}, {"label": "tp", "name": "tp", "sigma": "1.739E-5", "value": "2460806.366001477868", "title": "time of perihelion passage", "units": "TDB"}, {"label": "period", "name": "per", "sigma": "6.9047E-5", "units": "d", "title": "sidereal orbital period", "value": "1314.632515357443"}, {"label": "n", "sigma": "1.4383E-8", "name": "n", "units": "deg/d", "title": "mean motion", "value": ".2738407850060802"}, {"label": "Q", "units": "au", "value": "4.183154977247296", "title": "aphelion distance", "sigma": "1.4647E-7", "name": "ad"}], "epoch": "2461200.5"}